{
  "links" : {
    "next" : "https://api.nasa.gov/neo/rest/v1/feed?start_date=1996-10-23&end_date=1996-10-23&detailed=true&api_key=t0TVs3DtDT2H8Oy2Zy8m2eVrNsAVKAexjcZXUckd",
    "prev" : "https://api.nasa.gov/neo/rest/v1/feed?start_date=1996-10-21&end_date=1996-10-21&detailed=true&api_key=t0TVs3DtDT2H8Oy2Zy8m2eVrNsAVKAexjcZXUckd",
    "self" : "https://api.nasa.gov/neo/rest/v1/feed?start_date=1996-10-22&end_date=1996-10-22&detailed=true&api_key=t0TVs3DtDT2H8Oy2Zy8m2eVrNsAVKAexjcZXUckd"
  },
  "element_count" : 7,
  "near_earth_objects" : {
    "1996-10-22" : [ {
      "links" : {
        "self" : "https://api.nasa.gov/neo/rest/v1/neo/3550075?api_key=t0TVs3DtDT2H8Oy2Zy8m2eVrNsAVKAexjcZXUckd"
      },
      "neo_reference_id" : "3550075",
      "name" : "(2010 UM7)",
      "nasa_jpl_url" : "http://ssd.jpl.nasa.gov/sbdb.cgi?sstr=3550075",
      "absolute_magnitude_h" : 27.6,
      "estimated_diameter" : {
        "kilometers" : {
          "estimated_diameter_min" : 0.0080270317,
          "estimated_diameter_max" : 0.0179489885
        },
        "meters" : {
          "estimated_diameter_min" : 8.0270316728,
          "estimated_diameter_max" : 17.948988478
        },
        "miles" : {
          "estimated_diameter_min" : 0.0049877647,
          "estimated_diameter_max" : 0.0111529809
        },
        "feet" : {
          "estimated_diameter_min" : 26.3354065935,
          "estimated_diameter_max" : 58.8877593581
        }
      },
      "is_potentially_hazardous_asteroid" : false,
      "close_approach_data" : [ {
        "close_approach_date" : "1996-10-22",
        "epoch_date_close_approach" : 845967600000,
        "relative_velocity" : {
          "kilometers_per_second" : "15.2296111406",
          "kilometers_per_hour" : "54826.6001062504",
          "miles_per_hour" : "34067.1171604643"
        },
        "miss_distance" : {
          "astronomical" : "0.0583296523",
          "lunar" : "22.6902351379",
          "kilometers" : "8725992",
          "miles" : "5422080"
        },
        "orbiting_body" : "Earth"
      } ],
      "orbital_data" : {
        "orbit_id" : "15",
        "orbit_determination_date" : "2017-04-06 08:56:07",
        "orbit_uncertainty" : "5",
        "minimum_orbit_intersection" : ".00262576",
        "jupiter_tisserand_invariant" : "2.934",
        "epoch_osculation" : "2458000.5",
        "eccentricity" : ".6811402669582243",
        "semi_major_axis" : "2.789499927346585",
        "inclination" : "4.552909818436204",
        "ascending_node_longitude" : "217.8391865229604",
        "orbital_period" : "1701.719433610778",
        "perihelion_distance" : ".8894592021537847",
        "perihelion_argument" : "223.7746477489298",
        "aphelion_distance" : "4.689540652539384",
        "perihelion_time" : "2457236.954709828849",
        "mean_anomaly" : "161.5285687126289",
        "mean_motion" : ".2115507367957463",
        "equinox" : "J2000"
      }
    }, {
      "links" : {
        "self" : "https://api.nasa.gov/neo/rest/v1/neo/3735678?api_key=t0TVs3DtDT2H8Oy2Zy8m2eVrNsAVKAexjcZXUckd"
      },
      "neo_reference_id" : "3735678",
      "name" : "(2015 XT1)",
      "nasa_jpl_url" : "http://ssd.jpl.nasa.gov/sbdb.cgi?sstr=3735678",
      "absolute_magnitude_h" : 23.3,
      "estimated_diameter" : {
        "kilometers" : {
          "estimated_diameter_min" : 0.058150704,
          "estimated_diameter_max" : 0.130028927
        },
        "meters" : {
          "estimated_diameter_min" : 58.1507039646,
          "estimated_diameter_max" : 130.0289270043
        },
        "miles" : {
          "estimated_diameter_min" : 0.0361331611,
          "estimated_diameter_max" : 0.0807962044
        },
        "feet" : {
          "estimated_diameter_min" : 190.7831555951,
          "estimated_diameter_max" : 426.6041048727
        }
      },
      "is_potentially_hazardous_asteroid" : false,
      "close_approach_data" : [ {
        "close_approach_date" : "1996-10-22",
        "epoch_date_close_approach" : 845967600000,
        "relative_velocity" : {
          "kilometers_per_second" : "16.7190712641",
          "kilometers_per_hour" : "60188.6565508298",
          "miles_per_hour" : "37398.8905107087"
        },
        "miss_distance" : {
          "astronomical" : "0.2533048404",
          "lunar" : "98.5355834961",
          "kilometers" : "37893864",
          "miles" : "23546156"
        },
        "orbiting_body" : "Earth"
      } ],
      "orbital_data" : {
        "orbit_id" : "15",
        "orbit_determination_date" : "2017-04-06 08:30:16",
        "orbit_uncertainty" : "6",
        "minimum_orbit_intersection" : ".0485347",
        "jupiter_tisserand_invariant" : "7.021",
        "epoch_osculation" : "2458000.5",
        "eccentricity" : ".3300272165303476",
        "semi_major_axis" : ".8298855011061081",
        "inclination" : "4.977297292677525",
        "ascending_node_longitude" : "143.8828765846776",
        "orbital_period" : "276.1376932132466",
        "perihelion_distance" : ".5560006991371665",
        "perihelion_argument" : "102.3412275502733",
        "aphelion_distance" : "1.10377030307505",
        "perihelion_time" : "2458042.420887140630",
        "mean_anomaly" : "305.3478473184306",
        "mean_motion" : "1.303697426493641",
        "equinox" : "J2000"
      }
    }, {
      "links" : {
        "self" : "https://api.nasa.gov/neo/rest/v1/neo/3346470?api_key=t0TVs3DtDT2H8Oy2Zy8m2eVrNsAVKAexjcZXUckd"
      },
      "neo_reference_id" : "3346470",
      "name" : "(2006 SB142)",
      "nasa_jpl_url" : "http://ssd.jpl.nasa.gov/sbdb.cgi?sstr=3346470",
      "absolute_magnitude_h" : 21.8,
      "estimated_diameter" : {
        "kilometers" : {
          "estimated_diameter_min" : 0.1160259082,
          "estimated_diameter_max" : 0.2594418179
        },
        "meters" : {
          "estimated_diameter_min" : 116.0259082094,
          "estimated_diameter_max" : 259.4418179074
        },
        "miles" : {
          "estimated_diameter_min" : 0.0720951346,
          "estimated_diameter_max" : 0.1612096218
        },
        "feet" : {
          "estimated_diameter_min" : 380.6624406898,
          "estimated_diameter_max" : 851.1870938635
        }
      },
      "is_potentially_hazardous_asteroid" : false,
      "close_approach_data" : [ {
        "close_approach_date" : "1996-10-22",
        "epoch_date_close_approach" : 845967600000,
        "relative_velocity" : {
          "kilometers_per_second" : "4.3868556408",
          "kilometers_per_hour" : "15792.6803067136",
          "miles_per_hour" : "9812.9573828021"
        },
        "miss_distance" : {
          "astronomical" : "0.3147869233",
          "lunar" : "122.4521102905",
          "kilometers" : "47091452",
          "miles" : "29261272"
        },
        "orbiting_body" : "Earth"
      } ],
      "orbital_data" : {
        "orbit_id" : "16",
        "orbit_determination_date" : "2017-04-06 09:08:01",
        "orbit_uncertainty" : "0",
        "minimum_orbit_intersection" : ".275615",
        "jupiter_tisserand_invariant" : "3.499",
        "epoch_osculation" : "2458000.5",
        "eccentricity" : ".4324848567211262",
        "semi_major_axis" : "2.23544841835612",
        "inclination" : "7.669155323448742",
        "ascending_node_longitude" : "9.64025703181016",
        "orbital_period" : "1220.802490848324",
        "perihelion_distance" : "1.268650829435906",
        "perihelion_argument" : "18.1204002541054",
        "aphelion_distance" : "3.202246007276335",
        "perihelion_time" : "2457696.686369463151",
        "mean_anomaly" : "89.59099265702127",
        "mean_motion" : ".2948879959688152",
        "equinox" : "J2000"
      }
    } ]
  }
}